305P/Skiff,e,11.6471,240.1211,147.2796,4.644282,0.0984750,0.69313709,225.6041,02/22.0/2021,2000,g 18.0,4.0
# From MPC 92278
306P/LINEAR,e,8.3109,341.3757,0.8318,3.122753,0.1786067,0.59329457,70.7452,02/22.0/2021,2000,g 19.0,4.0
# From MPC 92278
307P/LINEAR,e,4.4336,158.1464,222.1370,5.793425,0.0706807,0.67452837,159.4043,02/22.0/2021,2000,g 15.0,4.0
# From MPC109148
308P/Lagerkvist-Carsenty,e,4.8504,63.0902,333.5951,6.605094,0.0580611,0.36320989,123.0399,02/22.0/2021,2000,g 13.0,2.0
# From MPC 94284
309P/LINEAR,e,17.0232,10.1407,49.9643,4.371520,0.1078339,0.61761804,237.9423,02/22.0/2021,2000,g 15.0,4.0
# From MPC 98566
310P/Hill,e,13.1279,8.9252,31.8363,4.178178,0.1154047,0.42179299,247.4929,02/22.0/2021,2000,g 13.5,4.0
# From MPEC 2021-BE3
311P/PANSTARRS,e,4.9698,279.2277,144.5853,2.188819,0.3043611,0.11547210,41.8672,02/22.0/2021,2000,g 17.0,4.0
# From MPEC 2021-BE3
312P/NEAT,e,19.7684,144.6697,207.5355,3.466153,0.1527329,0.42781143,22.9093,02/22.0/2021,2000,g 16.0,4.0
# From MPEC 2021-BE3
313P/Gibbs,e,10.9831,105.9731,254.6649,3.162093,0.1752839,0.23495404,54.7975,02/22.0/2021,2000,g 15.0,4.0
# From MPC105243
314P/Montani,e,3.9796,267.6163,214.1609,7.271230,0.0502681,0.41603893,80.3169,02/22.0/2021,2000,g  9.5,4.0
# From MPC115888
315P/LONEOS,e,17.7723,68.9736,65.6825,4.939149,0.0897896,0.52172859,138.7512,02/22.0/2021,2000,g 11.0,4.0
# From MPC 92279
316P/LONEOS-Christensen,e,9.8546,246.6811,193.4968,4.357980,0.1083369,0.15806337,211.8900,02/22.0/2021,2000,g 13.5,4.0
# From MPEC 2020-C98
317P/WISE,e,11.9501,275.5157,334.9031,2.965392,0.1930105,0.57050419,28.7239,02/22.0/2021,2000,g 17.5,4.0
# From MPC102103
318P/McNaught-Hartley,e,17.8761,35.6045,313.1538,7.497645,0.0480084,0.67515490,93.5003,02/22.0/2021,2000,g  8.5,6.0
# From MPC 97499
319P/Catalina-McNaught,e,15.0950,111.3772,203.6429,3.567831,0.1462506,0.66660520,301.1456,02/22.0/2021,2000,g 15.0,4.0
# From MPC 96281
320P/McNaught,e,4.9089,295.9300,0.7754,3.094014,0.1811010,0.68575651,6.4941,02/22.0/2021,2000,g 20.5,4.0
# From MPC105243
321P/SOHO,e,20.0693,165.0281,172.7361,2.423328,0.2612678,0.98109511,0.0000,01/17.2854/2020,2000,g 20.0,4.0
# From MPC102103
322P/SOHO,e,11.4630,351.4917,56.9096,2.508055,0.2481409,0.97979311,0.0000,08/31.4505/2019,2000,g 19.0,4.0
# From MPEC 2016-Y36
323P/SOHO,e,5.3387,324.3750,353.0532,2.582066,0.2375489,0.98484278,0.0000,01/17.7618/2021,2000,g 20.0,4.0
# From MPC108598
324P/La Sagra,e,21.4090,270.6334,57.7194,3.097899,0.1807604,0.15473816,346.7719,02/22.0/2021,2000,g 13.0,4.0
# From MPC114609
325P/Yang-Gao,e,16.6960,257.5730,343.6881,3.523950,0.1489908,0.59359102,300.3841,02/22.0/2021,2000,g 14.0,4.0
# From MPC103849
326P/Hill,e,2.4708,99.8122,278.5863,4.063853,0.1203087,0.31757609,234.6454,02/22.0/2021,2000,g 13.5,4.0
# From MPC 97499
327P/Van Ness,e,36.2486,173.9791,185.0283,3.562482,0.1465801,0.56295891,278.2809,02/22.0/2021,2000,g 16.0,4.0
# From MPC109148
328P/LONEOS-Tucker,e,17.6715,341.6292,30.4816,4.195130,0.1147059,0.55195967,216.3522,02/22.0/2021,2000,g 14.5,4.0
# From MPC101101
329P/LINEAR-Catalina,e,21.6687,87.6793,343.5373,5.191997,0.0833110,0.67701661,159.2205,02/22.0/2021,2000,g 13.5,4.0
# From MPC105243
330P/Catalina,e,15.6941,293.0959,188.9784,6.630383,0.0577293,0.54840220,94.6984,02/22.0/2021,2000,g 12.0,4.0
# From MPEC 2021-BE3
331P/Gibbs,e,9.7389,216.7771,183.8248,3.003893,0.1893117,0.04083414,27.4485,02/22.0/2021,2000,g 12.0,4.0
# From MPEC 2016-K18
332P/Ikeya-Murakami,e,9.3799,3.7887,152.3495,3.088953,0.1815462,0.48945489,327.7874,02/22.0/2021,2000,g 18.0,4.0
# From MPEC 2016-EI8
332P-B/Ikeya-Murakami,e,9.3805,3.8028,152.3711,3.082329,0.1821317,0.48970701,359.9699,03/17.0/2016,2000,g 19.0,4.0
# From MPEC 2016-K18
332P-C/Ikeya-Murakami,e,9.3790,3.7892,152.3408,3.088919,0.1815492,0.48946034,327.8010,02/22.0/2021,2000,g 16.5,4.0
# From MPEC 2016-ED0
332P-D/Ikeya-Murakami,e,9.3761,3.7923,152.4393,3.081138,0.1822373,0.48977814,359.9486,03/17.0/2016,2000,g 19.0,4.0
# From MPEC 2016-ED0
332P-E/Ikeya-Murakami,e,9.3774,3.8228,152.2825,3.079877,0.1823493,0.48922008,359.9889,03/17.0/2016,2000,g 21.0,4.0
# From MPEC 2016-ED0
332P-F/Ikeya-Murakami,e,9.5293,3.4757,152.8203,3.163214,0.1751908,0.49918860,359.8501,03/17.0/2016,2000,g 21.0,4.0
# From MPEC 2016-ED0
332P-G/Ikeya-Murakami,e,9.2523,3.6955,154.4000,3.050519,0.1849880,0.49200362,359.9006,03/19.0/2016,2000,g 19.0,4.0
# From MPC100285
332P-H/Ikeya-Murakami,e,9.3795,3.7889,152.3415,3.089102,0.1815330,0.48949546,327.7388,02/22.0/2021,2000,g 19.0,4.0
# From MPEC 2016-ED0
332P-I/Ikeya-Murakami,e,9.3791,3.8048,152.3297,3.081767,0.1821815,0.48955490,359.9360,03/17.0/2016,2000,g 20.5,2.0
# From MPEC 2016-EI8
332P-J/Ikeya-Murakami,e,9.4296,3.6729,152.7712,3.115165,0.1792596,0.49429435,359.8613,03/17.0/2016,2000,g 20.5,2.0
# From MPEC 2020-L06
333P/LINEAR,e,131.9800,115.6253,26.0158,4.218965,0.1137353,0.73676466,203.4245,02/22.0/2021,2000,g 15.0,4.0
# From MPC115888
334P/NEAT,e,20.4451,90.6944,90.0275,6.838388,0.0551155,0.35214998,74.7061,02/22.0/2021,2000,g 10.5,4.0
# From MPC100285
335P/Gibbs,e,7.2931,330.8467,162.2513,3.578349,0.1456063,0.54566081,281.9364,02/22.0/2021,2000,g 17.0,4.0
# From MPC105244
336P/McNaught,e,17.8339,298.2278,308.7532,5.031743,0.0873226,0.44526878,129.2605,02/22.0/2021,2000,g 13.5,4.0
# From MPC115888
337P/WISE,e,15.3727,106.0707,160.9945,3.287381,0.1653595,0.49683419,278.3041,02/22.0/2021,2000,g 17.0,4.0
# From MPC104796
338P/McNaught,e,25.3767,9.7885,4.3975,3.897519,0.1280919,0.41131838,198.8326,02/22.0/2021,2000,g 12.0,4.0
# From MPC101101
339P/Gibbs,e,5.7344,172.7371,27.5203,3.696274,0.1386941,0.63565443,232.3881,02/22.0/2021,2000,g 17.0,4.0
# From MPC102957
340P/Boattini,e,2.0795,291.7250,35.8250,4.251328,0.1124390,0.28073304,174.8057,02/22.0/2021,2000,g 13.0,4.0
# From MPEC 2021-BE3
341P/Gibbs,e,3.7953,29.9845,312.1380,4.293785,0.1107755,0.41537484,191.6504,02/22.0/2021,2000,g 12.5,4.0
# From MPC101101
342P/SOHO,e,11.6709,27.9669,73.0320,3.043464,0.1856315,0.98284155,0.0000,10/19.2715/2021,2000,g  9.0,4.0
# From MPC109148
343P/NEAT-LONEOS,e,5.5839,257.2167,137.3713,5.460852,0.0772349,0.58406592,114.7577,02/22.0/2021,2000,g 14.0,4.0
# From MPC109148
344P/Read,e,3.4906,273.1805,140.3861,4.866293,0.0918135,0.42177566,144.5477,02/22.0/2021,2000,g 13.0,4.0
# From MPC109148
345P/LINEAR,e,2.7269,154.5029,196.3753,4.039251,0.1214096,0.22089704,204.0383,02/22.0/2021,2000,g 12.0,4.0
# From MPC110086
346P/Catalina,e,22.1861,102.4673,335.9893,4.476048,0.1040787,0.50231899,152.9385,02/22.0/2021,2000,g 14.0,4.0
# From MPC108599
347P/PANSTARRS,e,11.7488,261.0356,98.3186,3.606480,0.1439060,0.38563778,233.6270,02/22.0/2021,2000,g 15.0,4.0
# From MPEC 2020-SI8
348P/PANSTARRS,e,17.7406,312.9421,135.5826,3.151112,0.1762009,0.30670043,297.3911,02/22.0/2021,2000,g 14.0,4.0
# From MPC112394
349P/Lemmon,e,5.4909,331.7443,256.0514,3.572793,0.1459461,0.29913092,186.2722,02/22.0/2021,2000,g 14.0,4.0
# From MPC111775
350P/McNaught,e,7.3568,65.3511,140.3684,4.093007,0.1190256,0.09127383,138.5350,02/22.0/2021,2000,g 14.0,4.0
# From MPC105244
351P/Wiegert-PANSTARRS,e,12.7891,283.4492,352.6541,4.437336,0.1054437,0.29596136,202.6611,02/22.0/2021,2000,g 12.5,4.0
# From MPC110086
352P/Skiff,e,21.0089,28.0760,309.1705,6.636759,0.0576461,0.61820785,77.2785,02/22.0/2021,2000,g 11.5,4.0
# From MPEC 2020-AA5
353P/McNaught,e,28.4250,121.5627,230.3780,4.171335,0.1156888,0.47005147,134.0029,02/22.0/2021,2000,g 14.5,4.0
# From MPC105545
354P/LINEAR,e,5.2556,320.1295,132.9924,2.289745,0.2844614,0.12566153,85.5335,02/22.0/2021,2000,g 15.5,4.0
# From MPEC 2020-AA5
355P/LINEAR-NEAT,e,11.0381,51.4349,336.2495,3.472116,0.1523396,0.50705085,187.0832,02/22.0/2021,2000,g 15.5,2.0
# From MPC109148
356P/WISE,e,9.6365,160.7923,226.0064,4.160100,0.1161578,0.35486715,135.0649,02/22.0/2021,2000,g 14.0,4.0
# From MPC114609
357P/Hill,e,6.3108,44.5740,1.4047,4.461096,0.1046024,0.43466613,104.6139,02/22.0/2021,2000,g 15.5,4.0
# From MPEC 2020-HN5
358P/PANSTARRS,e,11.0575,85.7103,299.7273,3.147980,0.1764640,0.23830669,184.8337,02/22.0/2021,2000,g 18.0,4.0
# From MPC110086
359P/LONEOS,e,10.2665,149.7563,200.1449,4.639569,0.0986251,0.32403420,126.3000,02/22.0/2021,2000,g 13.5,4.0
# From MPC108599
360P/WISE,e,24.1019,2.1907,354.1208,3.702510,0.1383438,0.49879965,177.4540,02/22.0/2021,2000,g 19.5,6.0
# From MPC114609
361P/Spacewatch,e,13.8903,203.2512,219.0730,4.939396,0.0897828,0.43793843,86.7171,02/22.0/2021,2000,g 12.0,4.0
# From MPEC 2017-V13
362P/,e,15.5572,192.5752,53.6992,3.968437,0.1246737,0.27960967,204.8929,02/22.0/2021,2000,g 12.9,2.0
# From MPC114609
363P/Lemmon,e,5.3671,147.0753,341.1704,3.541141,0.1479072,0.52988993,159.7671,02/22.0/2021,2000,g 17.5,4.0
# From MPC114609
364P/PANSTARRS,e,12.1421,46.1979,211.9994,2.879123,0.2017501,0.72230360,196.4353,02/22.0/2021,2000,g 17.0,2.0
# From MPC111775
365P/PANSTARRS,e,9.8305,87.3285,66.2613,3.177015,0.1740504,0.57640448,192.5208,02/22.0/2021,2000,g 17.0,4.0
# From MPC114610
366P/Spacewatch,e,8.8592,70.7570,153.1518,3.495627,0.1508052,0.34835547,142.8352,02/22.0/2021,2000,g 15.0,4.0
# From MPC112395
367P/Catalina,e,8.4629,58.7193,172.9159,3.505471,0.1501705,0.28035681,146.7067,02/22.0/2021,2000,g 17.5,2.0
# From MPC114610
368P/NEAT,e,15.4821,257.9532,118.7830,5.526833,0.0758559,0.62631826,67.6237,02/22.0/2021,2000,g 14.0,4.0
# From MPC114610
369P/Hill,e,10.3126,47.2983,13.1913,4.384938,0.1073393,0.55431913,92.4097,02/22.0/2021,2000,g 15.0,4.0
# From MPC114610
370P/NEAT,e,19.4027,55.1252,356.6879,6.435542,0.0603707,0.61449732,59.6784,02/22.0/2021,2000,g 13.0,4.0
# From MPC114610
371P/LINEAR-Skiff,e,17.3773,67.3090,308.4560,4.181193,0.1152800,0.47655066,100.4273,02/22.0/2021,2000,g 16.0,4.0
# From MPEC 2020-K19
372P/McNaught,e,9.5100,325.8163,27.2486,4.503829,0.1031172,0.15267949,88.1045,02/22.0/2021,2000,g 13.5,4.0
# From MPC114610
373P/Rinner,e,13.7603,231.9483,221.1190,3.804151,0.1328365,0.39216560,91.0174,02/22.0/2021,2000,g 14.5,4.0
# From MPC114610
